M2 PATHFINDER           
1 45727U 20037E   26199.10148275  .00000760  00000+0  58319-4 0  9994
2 45727  97.8140  30.6830 0012642  53.4103 306.8284 15.04796284330145
NETSAT-4                
1 46504U 20068U   26199.03116629  .00010198  00000+0  21966-3 0  9995
2 46504  97.8605 209.7738 0005097 183.3360 176.7854 15.44816439320533
NETSAT-3                
1 46505U 20068V   26198.99583850  .00010310  00000+0  23083-3 0  9992
2 46505  97.8658 207.9146 0004187 199.0804 161.0287 15.43668165320437
NETSAT-1                
1 46506U 20068W   26198.96978133  .00006870  00000+0  20314-3 0  9992
2 46506  97.8757 201.8469 0002601 246.1321 113.9649 15.35283657320029
NETSAT-2                
1 46507U 20068X   26199.28431576  .00013062  00000+0  25840-3 0  9994
2 46507  97.8616 210.0628 0002603 195.5474 164.5695 15.47248392320541
GREENCUBE (IO-117)      
1 53109U 22080E   26198.22212605 -.00000003  00000+0  00000+0 0  9998
2 53109  70.1407 287.8015 0009072 282.9900  76.9746  6.42583336 93997
SITRO-AIS 5 (KATYS)     
1 57176U 23091L   26199.20508276  .00006067  00000+0  21066-3 0  9994
2 57176  97.5040 263.4115 0010342   1.7442 358.3832 15.30102887169084
SITRO-AIS 6 (CHIRKIN)   
1 57192U 23091AC  26199.19120293  .00005091  00000+0  19780-3 0  9995
2 57192  97.5047 262.3493 0010855   6.1277 354.0092 15.26468784169010
SITRO-AIS 8 (ANOKHIN)   
1 57193U 23091AD  26199.29717587  .00006619  00000+0  21058-3 0  9993
2 57193  97.5035 265.2229 0009185 356.5809   3.5369 15.32904899169218
SITRO-AIS 7 (FARTUSHNIY)
1 57194U 23091AE  26199.26640362  .00004903  00000+0  19249-3 0  9990
2 57194  97.5044 262.2333 0010815   7.1406 352.9984 15.26142582169014
SITRO-AIS 10 (BURDAEV)  
1 57199U 23091AK  26199.25962126  .00010581  00000+0  26989-3 0  9997
2 57199  97.5060 270.5678 0004605 327.4745  32.6216 15.39697082169547
SITRO-AIS 9 (SHCHUKIN)  
1 57201U 23091AM  26199.16615919  .00010210  00000+0  26494-3 0  9996
2 57201  97.5060 270.1770 0004883 328.6795  31.4159 15.39178614169511
SITRO-AIS 12 (SMIRENNIY)
1 57204U 23091AQ  26199.15087501  .00011179  00000+0  28709-3 0  9994
2 57204  97.5072 270.6481 0004463 320.5732  39.5188 15.39474023169533
SITRO-AIS 11 (SHEFFER)  
1 57208U 23091AU  26199.22052174  .00011146  00000+0  28211-3 0  9996
2 57208  97.5070 270.9861 0004400 319.5320  40.5598 15.39921386169561
SITRO-AIS 25            
1 59066U 24039R   26199.26153213  .00001582  00000+0  12518-3 0  9999
2 59066  95.3890 256.4458 0143029 218.6810 140.4106 14.93653227129360
SITRO-AIS 26            
1 59067U 24039S   26199.26719101  .00001401  00000+0  11169-3 0  9995
2 59067  95.3890 256.3409 0143358 219.2772 139.7987 14.93444353129350
SITRO-AIS 27            
1 59068U 24039T   26199.29565785  .00001689  00000+0  13290-3 0  9991
2 59068  95.3895 256.6468 0142475 217.6870 141.4310 14.93868341129384
SITRO-AIS 28            
1 59071U 24039U   26199.27240106  .00001372  00000+0  10842-3 0  9999
2 59071  95.3894 256.6797 0142335 217.6167 141.5039 14.93902917129383
GRBBETA                 
1 60237U 24128C   26199.14570953  .00001676  00000+0  12491-3 0  9995
2 60237  61.9888 107.6324 0036693 141.3297 219.0434 15.06819541110934
OOV-CUBE (TUBSAT-30)    
1 60240U 24128F   26199.19456116  .00000911  00000+0  82240-4 0  9999
2 60240  61.9941 117.4425 0040736 140.6635 219.7428 15.02880615110778
ROBUSTA-3A (MEDITERRAN*)
1 60243U 24128J   26199.22058774  .00003573  00000+0  21668-3 0  9997
2 60243  61.9862  98.4708 0037738 134.2133 226.2073 15.12010670111110
LASARSAT                
1 62391U 24247Q   26198.96507674  .00021749  00000+0  40983-3 0  9999
2 62391  44.9738  89.0178 0007822 183.9645 176.1185 15.48162669 88087
CROCUBE                 
1 62394U 24247T   26199.05143081  .00024720  00000+0  43051-3 0  9992
2 62394  44.9717  85.3241 0007952 190.6183 169.4541 15.50337911 88137
FORESAIL-1 PRIME        
1 66778U 25276DS  26199.15870219  .00002422  00000+0  11913-3 0  9993
2 66778  97.4187 271.8658 0002640  38.2934 321.8487 15.18952660 35105
KNACKSAT-2              
1 67683U 98067XZ  26199.07280907  .00034011  00000+0  37689-3 0  9994
2 67683  51.6275 138.8026 0007917 337.9309  22.1343 15.62605935 25109
