OBJECT_NAME,OBJECT_ID,EPOCH,MEAN_MOTION,ECCENTRICITY,INCLINATION,RA_OF_ASC_NODE,ARG_OF_PERICENTER,MEAN_ANOMALY,EPHEMERIS_TYPE,CLASSIFICATION_TYPE,NORAD_CAT_ID,ELEMENT_SET_NO,REV_AT_EPOCH,BSTAR,MEAN_MOTION_DOT,MEAN_MOTION_DDOT
M2 PATHFINDER,2020-037E,2026-07-18T02:26:08.109600,15.04796284,.00126428,97.8140,30.6830,53.4103,306.8284,0,U,45727,999,33014,.58318677E-4,.76E-5,0
NETSAT-4,2020-068U,2026-07-18T00:44:52.767456,15.44816439,.0005097,97.8605,209.7738,183.3360,176.7854,0,U,46504,999,32053,.21966138E-3,.10198E-3,0
NETSAT-3,2020-068V,2026-07-17T23:54:00.446400,15.43668165,.00041878,97.8658,207.9146,199.0804,161.0287,0,U,46505,999,32043,.23083302E-3,.1031E-3,0
NETSAT-1,2020-068W,2026-07-17T23:16:29.106912,15.35283657,.0002601,97.8757,201.8469,246.1321,113.9649,0,U,46506,999,32002,.20313651E-3,.687E-4,0
NETSAT-2,2020-068X,2026-07-18T06:49:24.881664,15.47248392,.00026033,97.8616,210.0628,195.5474,164.5695,0,U,46507,999,32054,.2584003E-3,.13062E-3,0
GREENCUBE (IO-117),2022-080E,2026-07-17T05:19:51.690720,6.42583336,.0009072,70.1407,287.8015,282.9900,76.9746,0,U,53109,999,9399,0,-.3E-7,0
SITRO-AIS 5 (KATYS),2023-091L,2026-07-18T04:55:19.150464,15.30102887,.00103429,97.5040,263.4115,1.7442,358.3832,0,U,57176,999,16908,.21065584E-3,.6067E-4,0
SITRO-AIS 6 (CHIRKIN),2023-091AC,2026-07-18T04:35:19.933152,15.26468784,.00108555,97.5047,262.3493,6.1277,354.0092,0,U,57192,999,16901,.1978001E-3,.5091E-4,0
SITRO-AIS 8 (ANOKHIN),2023-091AD,2026-07-18T07:07:55.995168,15.32904899,.00091859,97.5035,265.2229,356.5809,3.5369,0,U,57193,999,16921,.21058218E-3,.6619E-4,0
SITRO-AIS 7 (FARTUSHNIY),2023-091AE,2026-07-18T06:23:37.272768,15.26142582,.0010815,97.5044,262.2333,7.1406,352.9984,0,U,57194,999,16901,.19249399E-3,.4903E-4,0
SITRO-AIS 10 (BURDAEV),2023-091AK,2026-07-18T06:13:51.276864,15.39697082,.00046057,97.5060,270.5678,327.4745,32.6216,0,U,57199,999,16954,.2698853E-3,.10581E-3,0
SITRO-AIS 9 (SHCHUKIN),2023-091AM,2026-07-18T03:59:16.154016,15.39178614,.00048839,97.5060,270.1770,328.6795,31.4159,0,U,57201,999,16951,.26493522E-3,.1021E-3,0
SITRO-AIS 12 (SMIRENNIY),2023-091AQ,2026-07-18T03:37:15.600864,15.39474023,.00044638,97.5072,270.6481,320.5732,39.5188,0,U,57204,999,16953,.28708792E-3,.11179E-3,0
SITRO-AIS 11 (SHEFFER),2023-091AU,2026-07-18T05:17:33.078336,15.39921386,.00044,97.5070,270.9861,319.5320,40.5598,0,U,57208,999,16956,.28211133E-3,.11146E-3,0
SITRO-AIS 25,2024-039R,2026-07-18T06:16:36.376032,14.93653227,.01430299,95.3890,256.4458,218.6810,140.4106,0,U,59066,999,12936,.12517589E-3,.1582E-4,0
SITRO-AIS 26,2024-039S,2026-07-18T06:24:45.303264,14.93444353,.01433583,95.3890,256.3409,219.2772,139.7987,0,U,59067,999,12935,.11168904E-3,.1401E-4,0
SITRO-AIS 27,2024-039T,2026-07-18T07:05:44.838240,14.93868341,.01424753,95.3895,256.6468,217.6870,141.4310,0,U,59068,999,12938,.13290451E-3,.1689E-4,0
SITRO-AIS 28,2024-039U,2026-07-18T06:32:15.451584,14.93902917,.01423355,95.3894,256.6797,217.6167,141.5039,0,U,59071,999,12938,.10842412E-3,.1372E-4,0
GRBBETA,2024-128C,2026-07-18T03:29:49.303392,15.06819541,.00366939,61.9888,107.6324,141.3297,219.0434,0,U,60237,999,11093,.12491036E-3,.1676E-4,0
OOV-CUBE (TUBSAT-30),2024-128F,2026-07-18T04:40:10.084224,15.02880615,.00407363,61.9941,117.4425,140.6635,219.7428,0,U,60240,999,11077,.82240358E-4,.911E-5,0
ROBUSTA-3A (MEDITERRANEE),2024-128J,2026-07-18T05:17:38.780736,15.12010670,.00377385,61.9862,98.4708,134.2133,226.2073,0,U,60243,999,11111,.21667641E-3,.3573E-4,0
LASARSAT,2024-247Q,2026-07-17T23:09:42.630336,15.48162669,.00078224,44.9738,89.0178,183.9645,176.1185,0,U,62391,999,8808,.40982684E-3,.21749E-3,0
CROCUBE,2024-247T,2026-07-18T01:14:03.621984,15.50337911,.0007952,44.9717,85.3241,190.6183,169.4541,0,U,62394,999,8813,.43051364E-3,.2472E-3,0
FORESAIL-1 PRIME,2025-276DS,2026-07-18T03:48:31.869216,15.18952660,.00026402,97.4187,271.8658,38.2934,321.8487,0,U,66778,999,3510,.11912712E-3,.2422E-4,0
KNACKSAT-2,1998-067XZ,2026-07-18T01:44:50.703648,15.62605935,.00079174,51.6275,138.8026,337.9309,22.1343,0,U,67683,999,2510,.3768944E-3,.34011E-3,0
